{
  "type": "FeatureCollection",
  "features": [
    {
      "type": "Feature",
      "properties": {
        "norad_id": 58701,
        "name": "TIANMU-1 16",
        "group": "weather",
        "lat": -55.08514799957455,
        "lon": -167.58226561528954,
        "alt_km": 498.05992591717404,
        "timestamp": "2025-12-26T19:22:38.537443+00:00",
        "meta_object_name": "TIANMU-1 16",
        "meta_object_id": "2024-004B",
        "meta_epoch": "2025-12-26T14:53:46.408992",
        "meta_mean_motion": 15.24620187,
        "meta_eccentricity": 0.00044641,
        "meta_inclination": 97.4571,
        "meta_ra_of_asc_node": 181.4159,
        "meta_arg_of_pericenter": 232.7252,
        "meta_mean_anomaly": 127.3579,
        "meta_ephemeris_type": 0,
        "meta_classification_type": "U",
        "meta_norad_cat_id": 58701,
        "meta_element_set_no": 999,
        "meta_rev_at_epoch": 10946,
        "meta_bstar": 0.00029736752,
        "meta_mean_motion_dot": 7.267e-05,
        "meta_mean_motion_ddot": 0,
        "tle_line1": "1 58701U 24004B   25360.62067603  .00007267  00000+0  29737-3 0  9999",
        "tle_line2": "2 58701  97.4571 181.4159 0004464 232.7252 127.3579 15.24620187109466"
      },
      "geometry": {
        "type": "Point",
        "coordinates": [
          -167.58226561528954,
          -55.08514799957455
        ]
      }
    },
    {
      "type": "Feature",
      "properties": {
        "norad_id": 58702,
        "name": "TIANMU-1 17",
        "group": "weather",
        "lat": 30.563649673690783,
        "lon": 177.58082829760107,
        "alt_km": 492.57574578742515,
        "timestamp": "2025-12-26T19:22:38.537453+00:00",
        "meta_object_name": "TIANMU-1 17",
        "meta_object_id": "2024-004C",
        "meta_epoch": "2025-12-26T16:05:31.740864",
        "meta_mean_motion": 15.24663821,
        "meta_eccentricity": 0.00036373,
        "meta_inclination": 97.4604,
        "meta_ra_of_asc_node": 181.8828,
        "meta_arg_of_pericenter": 233.0637,
        "meta_mean_anomaly": 127.0268,
        "meta_ephemeris_type": 0,
        "meta_classification_type": "U",
        "meta_norad_cat_id": 58702,
        "meta_element_set_no": 999,
        "meta_rev_at_epoch": 10946,
        "meta_bstar": 0.0003132832,
        "meta_mean_motion_dot": 7.67e-05,
        "meta_mean_motion_ddot": 0,
        "tle_line1": "1 58702U 24004C   25360.67050626  .00007670  00000+0  31328-3 0  9999",
        "tle_line2": "2 58702  97.4604 181.8828 0003637 233.0637 127.0268 15.24663821109467"
      },
      "geometry": {
        "type": "Point",
        "coordinates": [
          177.58082829760107,
          30.563649673690783
        ]
      }
    },
    {
      "type": "Feature",
      "properties": {
        "norad_id": 58703,
        "name": "TIANMU-1 18",
        "group": "weather",
        "lat": 57.5052226596969,
        "lon": 14.092883693416836,
        "alt_km": 486.96750752035314,
        "timestamp": "2025-12-26T19:22:38.537463+00:00",
        "meta_object_name": "TIANMU-1 18",
        "meta_object_id": "2024-004D",
        "meta_epoch": "2025-12-26T15:41:42.228672",
        "meta_mean_motion": 15.24646213,
        "meta_eccentricity": 0.00030322,
        "meta_inclination": 97.4622,
        "meta_ra_of_asc_node": 182.0646,
        "meta_arg_of_pericenter": 229.4643,
        "meta_mean_anomaly": 130.6331,
        "meta_ephemeris_type": 0,
        "meta_classification_type": "U",
        "meta_norad_cat_id": 58703,
        "meta_element_set_no": 999,
        "meta_rev_at_epoch": 10946,
        "meta_bstar": 0.00031460831,
        "meta_mean_motion_dot": 7.698e-05,
        "meta_mean_motion_ddot": 0,
        "tle_line1": "1 58703U 24004D   25360.65396098  .00007698  00000+0  31461-3 0  9992",
        "tle_line2": "2 58703  97.4622 182.0646 0003032 229.4643 130.6331 15.24646213109461"
      },
      "geometry": {
        "type": "Point",
        "coordinates": [
          14.092883693416836,
          57.5052226596969
        ]
      }
    },
    {
      "type": "Feature",
      "properties": {
        "norad_id": 58990,
        "name": "INSAT-3DS",
        "group": "weather",
        "lat": 0.02789830540919616,
        "lon": 108.30377759005937,
        "alt_km": 35791.81723169682,
        "timestamp": "2025-12-26T19:22:38.537475+00:00",
        "meta_object_name": "INSAT-3DS",
        "meta_object_id": "2024-033A",
        "meta_epoch": "2025-12-26T08:17:23.335008",
        "meta_mean_motion": 1.00270939,
        "meta_eccentricity": 0.00013251,
        "meta_inclination": 0.0628,
        "meta_ra_of_asc_node": 99.0061,
        "meta_arg_of_pericenter": 177.0285,
        "meta_mean_anomaly": 25.5123,
        "meta_ephemeris_type": 0,
        "meta_classification_type": "U",
        "meta_norad_cat_id": 58990,
        "meta_element_set_no": 999,
        "meta_rev_at_epoch": 4533,
        "meta_bstar": 0,
        "meta_mean_motion_dot": -1.34e-06,
        "meta_mean_motion_ddot": 0,
        "tle_line1": "1 58990U 24033A   25360.34540897 -.00000134  00000+0  00000+0 0  9996",
        "tle_line2": "2 58990   0.0628  99.0061 0001325 177.0285  25.5123  1.00270939 45339"
      },
      "geometry": {
        "type": "Point",
        "coordinates": [
          108.30377759005937,
          0.02789830540919616
        ]
      }
    },
    {
      "type": "Feature",
      "properties": {
        "norad_id": 59051,
        "name": "METEOR-M2 4",
        "group": "weather",
        "lat": 7.978841677470092,
        "lon": 138.72373362866736,
        "alt_km": 822.7466783993477,
        "timestamp": "2025-12-26T19:22:38.537488+00:00",
        "meta_object_name": "METEOR-M2 4",
        "meta_object_id": "2024-039A",
        "meta_epoch": "2025-12-26T15:11:43.022112",
        "meta_mean_motion": 14.22403409,
        "meta_eccentricity": 0.00063323,
        "meta_inclination": 98.6786,
        "meta_ra_of_asc_node": 317.3255,
        "meta_arg_of_pericenter": 316.3935,
        "meta_mean_anomaly": 43.6742,
        "meta_ephemeris_type": 0,
        "meta_classification_type": "U",
        "meta_norad_cat_id": 59051,
        "meta_element_set_no": 999,
        "meta_rev_at_epoch": 9473,
        "meta_bstar": 4.2088416e-05,
        "meta_mean_motion_dot": 5e-07,
        "meta_mean_motion_ddot": 0,
        "tle_line1": "1 59051U 24039A   25360.63313683  .00000050  00000+0  42088-4 0  9997",
        "tle_line2": "2 59051  98.6786 317.3255 0006332 316.3935  43.6742 14.22403409 94734"
      },
      "geometry": {
        "type": "Point",
        "coordinates": [
          138.72373362866736,
          7.978841677470092
        ]
      }
    },
    {
      "type": "Feature",
      "properties": {
        "norad_id": 60133,
        "name": "GOES 19",
        "group": "weather",
        "lat": -0.003720592280665975,
        "lon": -48.995261910615035,
        "alt_km": 35783.55873112872,
        "timestamp": "2025-12-26T19:22:38.537500+00:00",
        "meta_object_name": "GOES 19",
        "meta_object_id": "2024-119A",
        "meta_epoch": "2025-12-26T12:35:56.409216",
        "meta_mean_motion": 1.00266665,
        "meta_eccentricity": 9.47e-05,
        "meta_inclination": 0.0307,
        "meta_ra_of_asc_node": 217.6802,
        "meta_arg_of_pericenter": 97.1965,
        "meta_mean_anomaly": 254.1873,
        "meta_ephemeris_type": 0,
        "meta_classification_type": "U",
        "meta_norad_cat_id": 60133,
        "meta_element_set_no": 999,
        "meta_rev_at_epoch": 523,
        "meta_bstar": 0,
        "meta_mean_motion_dot": -2.26e-06,
        "meta_mean_motion_ddot": 0,
        "tle_line1": "1 60133U 24119A   25360.52495844 -.00000226  00000+0  00000+0 0  9996",
        "tle_line2": "2 60133   0.0307 217.6802 0000947  97.1965 254.1873  1.00266665  5230"
      },
      "geometry": {
        "type": "Point",
        "coordinates": [
          -48.995261910615035,
          -0.003720592280665975
        ]
      }
    },
    {
      "type": "Feature",
      "properties": {
        "norad_id": 65815,
        "name": "FENGYUN 3H",
        "group": "weather",
        "lat": -73.17450801979777,
        "lon": -29.64235526165116,
        "alt_km": 833.5709469392959,
        "timestamp": "2025-12-26T19:22:38.537511+00:00",
        "meta_object_name": "FENGYUN 3H",
        "meta_object_id": "2025-219A",
        "meta_epoch": "2025-12-26T14:39:32.382144",
        "meta_mean_motion": 14.19908395,
        "meta_eccentricity": 8.701e-05,
        "meta_inclination": 98.6602,
        "meta_ra_of_asc_node": 299.9011,
        "meta_arg_of_pericenter": 109.8852,
        "meta_mean_anomaly": 250.2419,
        "meta_ephemeris_type": 0,
        "meta_classification_type": "U",
        "meta_norad_cat_id": 65815,
        "meta_element_set_no": 999,
        "meta_rev_at_epoch": 1289,
        "meta_bstar": 7.0924892e-05,
        "meta_mean_motion_dot": 1.07e-06,
        "meta_mean_motion_ddot": 0,
        "tle_line1": "1 65815U 25219A   25360.61079146  .00000107  00000+0  70925-4 0  9998",
        "tle_line2": "2 65815  98.6602 299.9011 0000870 109.8852 250.2419 14.19908395 12899"
      },
      "geometry": {
        "type": "Point",
        "coordinates": [
          -29.64235526165116,
          -73.17450801979777
        ]
      }
    }
  ]
}